{"type": "FeatureCollection", "features": [ {"type": "Feature", "properties": {"norad_id": 34738, "name": "COSMOS 2251 DEB", "group": "cosmos-2251-debris", "lat": 62.72070402670169, "lon": 161.70238429145166, "alt_km": 761.8526333811478, "timestamp": "2025-12-20T22:39:11.019963+00:00", "meta": {"OBJECT_NAME": "COSMOS 2251 DEB", "OBJECT_ID": "1993-036ZG", "EPOCH": "2025-12-20T12:59:02.141664", "MEAN_MOTION": 14.46318559, "ECCENTRICITY": 0.00475328, "INCLINATION": 74.0152, "RA_OF_ASC_NODE": 128.6853, "ARG_OF_PERICENTER": 273.5184, "MEAN_ANOMALY": 217.0479, "EPHEMERIS_TYPE": 0, "CLASSIFICATION_TYPE": "U", "NORAD_CAT_ID": 34738, "ELEMENT_SET_NO": 999, "REV_AT_EPOCH": 87971, "BSTAR": 0.00021890526, "MEAN_MOTION_DOT": 7.68e-06, "MEAN_MOTION_DDOT": 0}, "tle": {"line1": "1 34738U 93036ZG  25354.54099701  .00000768  00000+0  21891-3 0  9994", "line2": "2 34738  74.0152 128.6853 0047532 273.5184 217.0479 14.46318559879718"}}, "geometry": {"type": "Point", "coordinates": [161.70238429145166, 62.72070402670169]}}, {"type": "Feature", "properties": {"norad_id": 34750, "name": "COSMOS 2251 DEB", "group": "cosmos-2251-debris", "lat": -48.2688597390446, "lon": 167.50191267831053, "alt_km": 722.1677592698106, "timestamp": "2025-12-20T22:39:11.019972+00:00", "meta": {"OBJECT_NAME": "COSMOS 2251 DEB", "OBJECT_ID": "1993-036ZU", "EPOCH": "2025-12-20T08:23:13.654176", "MEAN_MOTION": 14.61389067, "ECCENTRICITY": 0.00385028, "INCLINATION": 74.1061, "RA_OF_ASC_NODE": 187.263, "ARG_OF_PERICENTER": 137.7769, "MEAN_ANOMALY": 285.4299, "EPHEMERIS_TYPE": 0, "CLASSIFICATION_TYPE": "U", "NORAD_CAT_ID": 34750, "ELEMENT_SET_NO": 999, "REV_AT_EPOCH": 88342, "BSTAR": 0.0006714335, "MEAN_MOTION_DOT": 3.328e-05, "MEAN_MOTION_DDOT": 0}, "tle": {"line1": "1 34750U 93036ZU  25354.34946359  .00003328  00000+0  67143-3 0  9991", "line2": "2 34750  74.1061 187.2630 0038502 137.7769 285.4299 14.61389067883424"}}, "geometry": {"type": "Point", "coordinates": [167.50191267831053, -48.2688597390446]}}, {"type": "Feature", "properties": {"norad_id": 34752, "name": "COSMOS 2251 DEB", "group": "cosmos-2251-debris", "lat": 27.456994385932024, "lon": 155.33779027381718, "alt_km": 540.3802813061066, "timestamp": "2025-12-20T22:39:11.019981+00:00", "meta": {"OBJECT_NAME": "COSMOS 2251 DEB", "OBJECT_ID": "1993-036ZW", "EPOCH": "2025-12-20T09:10:49.314144", "MEAN_MOTION": 15.00085535, "ECCENTRICITY": 0.00475603, "INCLINATION": 74.0128, "RA_OF_ASC_NODE": 345.0474, "ARG_OF_PERICENTER": 110.9744, "MEAN_ANOMALY": 249.6541, "EPHEMERIS_TYPE": 0, "CLASSIFICATION_TYPE": "U", "NORAD_CAT_ID": 34752, "ELEMENT_SET_NO": 999, "REV_AT_EPOCH": 89964, "BSTAR": 0.00064951852, "MEAN_MOTION_DOT": 8.26e-05, "MEAN_MOTION_DDOT": 0}, "tle": {"line1": "1 34752U 93036ZW  25354.38251521  .00008260  00000+0  64952-3 0  9992", "line2": "2 34752  74.0128 345.0474 0047560 110.9744 249.6541 15.00085535899649"}}, "geometry": {"type": "Point", "coordinates": [155.33779027381718, 27.456994385932024]}}, {"type": "Feature", "properties": {"norad_id": 34754, "name": "COSMOS 2251 DEB", "group": "cosmos-2251-debris", "lat": 11.492340134278571, "lon": 29.089321812849896, "alt_km": 777.7657595150067, "timestamp": "2025-12-20T22:39:11.019990+00:00", "meta": {"OBJECT_NAME": "COSMOS 2251 DEB", "OBJECT_ID": "1993-036ZY", "EPOCH": "2025-12-20T08:46:57.578016", "MEAN_MOTION": 14.40491518, "ECCENTRICITY": 0.00298601, "INCLINATION": 74.0295, "RA_OF_ASC_NODE": 213.4959, "ARG_OF_PERICENTER": 328.1679, "MEAN_ANOMALY": 84.0633, "EPHEMERIS_TYPE": 0, "CLASSIFICATION_TYPE": "U", "NORAD_CAT_ID": 34754, "ELEMENT_SET_NO": 999, "REV_AT_EPOCH": 88243, "BSTAR": 0.00014824143, "MEAN_MOTION_DOT": 4.47e-06, "MEAN_MOTION_DDOT": 0}, "tle": {"line1": "1 34754U 93036ZY  25354.36594419  .00000447  00000+0  14824-3 0  9990", "line2": "2 34754  74.0295 213.4959 0029860 328.1679  84.0633 14.40491518882432"}}, "geometry": {"type": "Point", "coordinates": [29.089321812849896, 11.492340134278571]}}, {"type": "Feature", "properties": {"norad_id": 34755, "name": "COSMOS 2251 DEB", "group": "cosmos-2251-debris", "lat": 37.17361114243722, "lon": 84.20894886560446, "alt_km": 1338.477533694725, "timestamp": "2025-12-20T22:39:11.019999+00:00", "meta": {"OBJECT_NAME": "COSMOS 2251 DEB", "OBJECT_ID": "1993-036ZZ", "EPOCH": "2025-12-20T11:51:52.372224", "MEAN_MOTION": 13.50572409, "ECCENTRICITY": 0.04081374, "INCLINATION": 73.9255, "RA_OF_ASC_NODE": 277.5604, "ARG_OF_PERICENTER": 296.0172, "MEAN_ANOMALY": 182.232, "EPHEMERIS_TYPE": 0, "CLASSIFICATION_TYPE": "U", "NORAD_CAT_ID": 34755, "ELEMENT_SET_NO": 999, "REV_AT_EPOCH": 82628, "BSTAR": 0.00060776559, "MEAN_MOTION_DOT": 6.31e-06, "MEAN_MOTION_DDOT": 0}, "tle": {"line1": "1 34755U 93036ZZ  25354.49435616  .00000631  00000+0  60777-3 0  9991", "line2": "2 34755  73.9255 277.5604 0408137 296.0172 182.2320 13.50572409826288"}}, "geometry": {"type": "Point", "coordinates": [84.20894886560446, 37.17361114243722]}}, {"type": "Feature", "properties": {"norad_id": 34756, "name": "COSMOS 2251 DEB", "group": "cosmos-2251-debris", "lat": 0.7496647028659771, "lon": -89.3368691470707, "alt_km": 1220.1962214901178, "timestamp": "2025-12-20T22:39:11.020009+00:00", "meta": {"OBJECT_NAME": "COSMOS 2251 DEB", "OBJECT_ID": "1993-036AAA", "EPOCH": "2025-12-20T05:57:15.725088", "MEAN_MOTION": 13.67260552, "ECCENTRICITY": 0.0345561, "INCLINATION": 74.0031, "RA_OF_ASC_NODE": 92.022, "ARG_OF_PERICENTER": 326.2182, "MEAN_ANOMALY": 31.7332, "EPHEMERIS_TYPE": 0, "CLASSIFICATION_TYPE": "U", "NORAD_CAT_ID": 34756, "ELEMENT_SET_NO": 999, "REV_AT_EPOCH": 83524, "BSTAR": 0.00082416, "MEAN_MOTION_DOT": 1.022e-05, "MEAN_MOTION_DDOT": 0}, "tle": {"line1": "1 34756U 93036AAA 25354.24809867  .00001022  00000+0  82416-3 0  9997", "line2": "2 34756  74.0031  92.0220 0345561 326.2182  31.7332 13.67260552835243"}}, "geometry": {"type": "Point", "coordinates": [-89.3368691470707, 0.7496647028659771]}}, {"type": "Feature", "properties": {"norad_id": 34758, "name": "COSMOS 2251 DEB", "group": "cosmos-2251-debris", "lat": 20.334521708153915, "lon": -67.64534884122301, "alt_km": 787.0716708028694, "timestamp": "2025-12-20T22:39:11.020018+00:00", "meta": {"OBJECT_NAME": "COSMOS 2251 DEB", "OBJECT_ID": "1993-036AAC", "EPOCH": "2025-12-19T12:58:00.664608", "MEAN_MOTION": 13.58092428, "ECCENTRICITY": 0.03819, "INCLINATION": 74.1075, "RA_OF_ASC_NODE": 288.5524, "ARG_OF_PERICENTER": 50.6712, "MEAN_ANOMALY": 312.7599, "EPHEMERIS_TYPE": 0, "CLASSIFICATION_TYPE": "U", "NORAD_CAT_ID": 34758, "ELEMENT_SET_NO": 999, "REV_AT_EPOCH": 83002, "BSTAR": 0.0013521, "MEAN_MOTION_DOT": 1.557e-05, "MEAN_MOTION_DDOT": 0}, "tle": {"line1": "1 34758U 93036AAC 25353.54028547  .00001557  00000+0  13521-2 0  9992", "line2": "2 34758  74.1075 288.5524 0381900  50.6712 312.7599 13.58092428830020"}}, "geometry": {"type": "Point", "coordinates": [-67.64534884122301, 20.334521708153915]}}, {"type": "Feature", "properties": {"norad_id": 34760, "name": "COSMOS 2251 DEB", "group": "cosmos-2251-debris", "lat": -66.60800003419686, "lon": -113.62231385706836, "alt_km": 788.8510801789107, "timestamp": "2025-12-20T22:39:11.020027+00:00", "meta": {"OBJECT_NAME": "COSMOS 2251 DEB", "OBJECT_ID": "1993-036AAE", "EPOCH": "2025-12-20T02:45:56.187360", "MEAN_MOTION": 14.19587536, "ECCENTRICITY": 0.00971328, "INCLINATION": 74.0633, "RA_OF_ASC_NODE": 289.197, "ARG_OF_PERICENTER": 339.7094, "MEAN_ANOMALY": 35.4086, "EPHEMERIS_TYPE": 0, "CLASSIFICATION_TYPE": "U", "NORAD_CAT_ID": 34760, "ELEMENT_SET_NO": 999, "REV_AT_EPOCH": 86793, "BSTAR": 0.00035343291, "MEAN_MOTION_DOT": 7.56e-06, "MEAN_MOTION_DDOT": 0}, "tle": {"line1": "1 34760U 93036AAE 25354.11523365  .00000756  00000+0  35343-3 0  9994", "line2": "2 34760  74.0633 289.1970 0097132 339.7094  35.4086 14.19587536867936"}}, "geometry": {"type": "Point", "coordinates": [-113.62231385706836, -66.60800003419686]}}, {"type": "Feature", "properties": {"norad_id": 34761, "name": "COSMOS 2251 DEB", "group": "cosmos-2251-debris", "lat": 32.17950089106635, "lon": -1.945614609289426, "alt_km": 737.1469202535145, "timestamp": "2025-12-20T22:39:11.020036+00:00", "meta": {"OBJECT_NAME": "COSMOS 2251 DEB", "OBJECT_ID": "1993-036AAF", "EPOCH": "2025-12-19T23:07:27.680448", "MEAN_MOTION": 14.38072705, "ECCENTRICITY": 0.00367834, "INCLINATION": 74.0284, "RA_OF_ASC_NODE": 349.4784, "ARG_OF_PERICENTER": 21.5138, "MEAN_ANOMALY": 338.7552, "EPHEMERIS_TYPE": 0, "CLASSIFICATION_TYPE": "U", "NORAD_CAT_ID": 34761, "ELEMENT_SET_NO": 999, "REV_AT_EPOCH": 87753, "BSTAR": 0.00044321115, "MEAN_MOTION_DOT": 1.327e-05, "MEAN_MOTION_DDOT": 0}, "tle": {"line1": "1 34761U 93036AAF 25353.96351482  .00001327  00000+0  44321-3 0  9997", "line2": "2 34761  74.0284 349.4784 0036783  21.5138 338.7552 14.38072705877534"}}, "geometry": {"type": "Point", "coordinates": [-1.945614609289426, 32.17950089106635]}}, {"type": "Feature", "properties": {"norad_id": 34784, "name": "COSMOS 2251 DEB", "group": "cosmos-2251-debris", "lat": -34.53186475094607, "lon": 140.03388510596074, "alt_km": 702.5879454247888, "timestamp": "2025-12-20T22:39:11.020045+00:00", "meta": {"OBJECT_NAME": "COSMOS 2251 DEB", "OBJECT_ID": "1993-036AAM", "EPOCH": "2025-12-19T22:39:42.145920", "MEAN_MOTION": 14.60808995, "ECCENTRICITY": 0.0049222, "INCLINATION": 74.0073, "RA_OF_ASC_NODE": 310.5647, "ARG_OF_PERICENTER": 117.7322, "MEAN_ANOMALY": 242.885, "EPHEMERIS_TYPE": 0, "CLASSIFICATION_TYPE": "U", "NORAD_CAT_ID": 34784, "ELEMENT_SET_NO": 999, "REV_AT_EPOCH": 88640, "BSTAR": 0.00031795, "MEAN_MOTION_DOT": 1.549e-05, "MEAN_MOTION_DDOT": 0}, "tle": {"line1": "1 34784U 93036AAM 25353.94423780  .00001549  00000+0  31795-3 0  9998", "line2": "2 34784  74.0073 310.5647 0049222 117.7322 242.8850 14.60808995886402"}}, "geometry": {"type": "Point", "coordinates": [140.03388510596074, -34.53186475094607]}}]}